[{"OBJECT_NAME":"TRANSPORTER-14 OBJECT AJ","OBJECT_ID":"2025-135AJ","EPOCH":"2026-03-09T23:01:26.659776","MEAN_MOTION":14.94645004,"ECCENTRICITY":8.275e-5,"INCLINATION":97.7608,"RA_OF_ASC_NODE":184.5717,"ARG_OF_PERICENTER":139.5374,"MEAN_ANOMALY":220.5908,"EPHEMERIS_TYPE":0,"CLASSIFICATION_TYPE":"U","NORAD_CAT_ID":64560,"ELEMENT_SET_NO":999,"REV_AT_EPOCH":3908,"BSTAR":0.00059250683,"MEAN_MOTION_DOT":6.366e-5,"MEAN_MOTION_DDOT":0},{"OBJECT_NAME":"CZ-4C DEB","OBJECT_ID":"2015-069D","EPOCH":"2026-03-09T14:03:55.988352","MEAN_MOTION":14.76537169,"ECCENTRICITY":0.0113533,"INCLINATION":97.7994,"RA_OF_ASC_NODE":293.1388,"ARG_OF_PERICENTER":335.1928,"MEAN_ANOMALY":24.3848,"EPHEMERIS_TYPE":0,"CLASSIFICATION_TYPE":"U","NORAD_CAT_ID":42671,"ELEMENT_SET_NO":999,"REV_AT_EPOCH":54179,"BSTAR":0.00082265,"MEAN_MOTION_DOT":6.325e-5,"MEAN_MOTION_DDOT":0}]
